NORAD_CAT_ID,OBJECT_NAME,OBJECT_TYPE,EPOCH,MEAN_MOTION,ECCENTRICITY,INCLINATION,RA_OF_ASC_NODE,ARG_OF_PERICENTER,MEAN_ANOMALY,BSTAR,MEAN_MOTION_DOT,MEAN_MOTION_DDOT,TLE_LINE0,TLE_LINE1,TLE_LINE2,SEMIMAJOR_AXIS,PERIOD,APOGEE,PERIGEE,DECAYED
53871.0,STARLINK-4740,PAYLOAD,2023-02-11 14:00:01,15.28419062,0.0001308,53.2114,261.7413,98.0072,63.4855,-0.044308,-0.01132513,0.0,0 STARLINK-4740,1 53871U 22114BF  23042.58334491 -.01132513  00000-0 -44308-1 0  9990,2 53871  53.2114 261.7413 0001308  98.0072  63.4855 15.28419062  1307,6858.675,94.215,481.437,479.643,0.0
53871.0,STARLINK-4740,PAYLOAD,2023-02-11 22:00:00,15.27589363,0.0001313,53.2113,260.2018,87.9865,108.1351,-0.044858,-0.01118961,0.0,0 STARLINK-4740,1 53871U 22114BF  23042.91667824 -.01118961  00000-0 -44858-1 0  9997,2 53871  53.2113 260.2018 0001313  87.9865 108.1351 15.27589363  1303,6861.158,94.266,483.924,482.122,0.0
53871.0,STARLINK-4740,PAYLOAD,2023-02-12 00:00:00,15.27372664,0.0001186,53.2115,259.8171,91.5494,203.0774,-0.043949,-0.01091513,0.0,0 STARLINK-4740,1 53871U 22114BF  23043.00001157 -.01091513  00000-0 -43949-1 0  9992,2 53871  53.2115 259.8171 0001186  91.5494 203.0774 15.27372664 23500,6861.807,94.28,484.486,482.858,0.0
53871.0,STARLINK-4740,PAYLOAD,2023-02-12 14:00:01,15.25979466,0.0001266,53.2118,257.1231,103.7247,158.6942,-0.047798,-0.011337,0.0,0 STARLINK-4740,1 53871U 22114BF  23043.58334491 -.01133700  00000-0 -47798-1 0  9996,2 53871  53.2118 257.1231 0001266 103.7247 158.6942 15.25979466  1309,6865.983,94.366,488.717,486.979,0.0
53871.0,STARLINK-4740,PAYLOAD,2023-02-12 16:00:00,15.25791828,0.0001077,53.212,256.7396,99.5177,260.9118,-0.049526,-0.01180814,0.0,0 STARLINK-4740,1 53871U 22114BF  23043.66667824 -.01180814  00000-0 -49526-1 0  9993,2 53871  53.2120 256.7396 0001077  99.5177 260.9118 15.25791828 23617,6866.546,94.377,489.15,487.671,0.0
53871.0,STARLINK-4740,PAYLOAD,2023-02-13 14:00:01,15.23540613,0.0001095,53.2124,252.5225,98.7539,255.7902,-0.051604,-0.01152079,0.0,0 STARLINK-4740,1 53871U 22114BF  23044.58334491 -.01152079  00000-0 -51604-1 0  9998,2 53871  53.2124 252.5225 0001095  98.7539 255.7902 15.23540613  1306,6873.308,94.517,495.926,494.421,0.0
53871.0,STARLINK-4740,PAYLOAD,2023-02-13 22:00:00,15.22699455,0.0001131,53.2124,250.9945,80.4741,302.8354,-0.051254,-0.0111859,0.0,0 STARLINK-4740,1 53871U 22114BF  23044.91667824 -.01118590  00000-0 -51254-1 0  9995,2 53871  53.2124 250.9945 0001131  80.4741 302.8354 15.22699455 23803,6875.839,94.569,498.482,496.927,0.0
53871.0,STARLINK-4740,PAYLOAD,2023-02-14 14:00:01,15.21105147,0.0001157,53.2127,247.939,87.8114,350.0562,-0.055972,-0.01161625,0.0,0 STARLINK-4740,1 53871U 22114BF  23045.58334491 -.01161625  00000-0 -55972-1 0  9998,2 53871  53.2127 247.9390 0001157  87.8114 350.0562 15.21105147  1305,6880.643,94.668,503.304,501.712,0.0
53871.0,STARLINK-4740,PAYLOAD,2023-02-14 20:00:01,15.20476103,0.0001142,53.2126,246.7974,81.8956,285.4394,-0.056292,-0.0114796,0.0,0 STARLINK-4740,1 53871U 22114BF  23045.83334491 -.01147960  00000-0 -56292-1 0  9998,2 53871  53.2126 246.7974 0001142  81.8956 285.4394 15.20476103  1307,6882.54,94.707,505.191,503.62,0.0
53871.0,STARLINK-4740,PAYLOAD,2023-02-17 22:00:00,15.12929828,0.00013,53.2126,232.7863,79.987,212.0864,-0.067099,-0.01104893,0.0,0 STARLINK-4740,1 53871U 22114BF  23048.91667824 -.01104893  00000-0 -67099-1 0  9994,2 53871  53.2126 232.7863 0001300  79.9870 212.0864 15.12929828 24400,6905.408,95.18,528.17,526.375,0.0
53871.0,STARLINK-4740,PAYLOAD,2023-02-18 14:00:01,15.11339735,0.0001198,53.2127,229.7765,90.7432,232.4226,-0.074526,-0.01168228,0.0,0 STARLINK-4740,1 53871U 22114BF  23049.58334491 -.01168228  00000-0 -74526-1 0  9994,2 53871  53.2127 229.7765 0001198  90.7432 232.4226 15.11339735 24519,6910.25,95.28,532.943,531.287,0.0
53871.0,STARLINK-4740,PAYLOAD,2023-02-19 14:00:01,15.08867145,0.0001529,53.2145,225.2782,87.8063,274.6817,-0.0031068,-0.0004943,0.0,0 STARLINK-4740,1 53871U 22114BF  23050.58334491 -.00049430  00000-0 -31068-2 0  9993,2 53871  53.2145 225.2782 0001529  87.8063 274.6817 15.08867145  1307,6917.797,95.436,540.72,538.605,0.0
53871.0,STARLINK-4740,PAYLOAD,2023-02-19 18:00:02,15.08840109,0.0001536,53.2148,224.5309,81.845,106.5165,-0.0011746,-0.00018933,0.0,0 STARLINK-4740,1 53871U 22114BF  23050.75002315 -.00018933  00000-0 -11746-2 0  9994,2 53871  53.2148 224.5309 0001536  81.8450 106.5165 15.08840109 24685,6917.88,95.438,540.808,538.682,0.0
53871.0,STARLINK-4740,PAYLOAD,2023-02-20 14:00:01,15.08869962,0.0001474,53.2152,220.7889,85.2567,311.9981,-0.0023866,-0.00038101,0.0,0 STARLINK-4740,1 53871U 22114BF  23051.58334491 -.00038101  00000-0 -23866-2 0  9994,2 53871  53.2152 220.7889 0001474  85.2567 311.9981 15.08869962  1309,6917.789,95.436,540.673,538.634,0.0
53871.0,STARLINK-4740,PAYLOAD,2023-02-20 16:00:00,15.0887455,0.0001497,53.215,220.4153,82.7905,47.3683,-0.0040598,-0.00064383,0.0,0 STARLINK-4740,1 53871U 22114BF  23051.66667824 -.00064383  00000-0 -40598-2 0  9994,2 53871  53.2150 220.4153 0001497  82.7905  47.3683 15.08874550 24821,6917.775,95.435,540.675,538.604,0.0
53871.0,STARLINK-4740,PAYLOAD,2023-02-21 08:00:01,15.08811855,0.0001415,53.215,217.4211,90.8654,62.4955,0.0031919,0.00050838,0.0,0 STARLINK-4740,1 53871U 22114BF  23052.33334491  .00050838  00000-0  31919-2 0  9995,2 53871  53.2150 217.4211 0001415  90.8654  62.4955 15.08811855 24923,6917.966,95.439,540.81,538.853,0.0
53871.0,STARLINK-4740,PAYLOAD,2023-02-21 14:00:01,15.08870394,0.0001477,53.2152,216.2997,89.2248,342.815,-0.0027195,-0.00043344,0.0,0 STARLINK-4740,1 53871U 22114BF  23052.58334491 -.00043344  00000-0 -27195-2 0  9999,2 53871  53.2152 216.2997 0001477  89.2248 342.8150 15.08870394  1304,6917.787,95.436,540.674,538.631,0.0
53871.0,STARLINK-4740,PAYLOAD,2023-02-21 22:00:00,15.08813442,0.0001419,53.2152,214.8044,83.9016,359.7635,0.0018865,0.00029841,0.0,0 STARLINK-4740,1 53871U 22114BF  23052.91667824  .00029841  00000-0  18865-2 0  9993,2 53871  53.2152 214.8044 0001419  83.9016 359.7635 15.08813442 25011,6917.962,95.439,540.808,538.845,0.0
53871.0,STARLINK-4740,PAYLOAD,2023-02-22 00:00:00,15.08828052,0.0001407,53.2151,214.4298,85.3889,91.1657,0.00031259,4.689e-05,0.0,0 STARLINK-4740,1 53871U 22114BF  23053.00001157  .00004689  00000-0  31259-3 0  9991,2 53871  53.2151 214.4298 0001407  85.3889  91.1657 15.08828052  1308,6917.917,95.438,540.755,538.809,0.0
53871.0,STARLINK-4740,PAYLOAD,2023-02-22 14:00:01,15.08865999,0.0001425,53.2156,211.8105,91.6429,15.1743,-0.002536,-0.00040451,0.0,0 STARLINK-4740,1 53871U 22114BF  23053.58334491 -.00040451  00000-0 -25360-2 0  9998,2 53871  53.2156 211.8105 0001425  91.6429  15.1743 15.08865999  1304,6917.801,95.436,540.652,538.68,0.0
53871.0,STARLINK-4740,PAYLOAD,2023-02-22 22:00:00,15.08815606,0.0001279,53.2157,210.3152,82.9274,35.5095,0.0016708,0.00026385,0.0,0 STARLINK-4740,1 53871U 22114BF  23053.91667824  .00026385  00000-0  16708-2 0  9998,2 53871  53.2157 210.3152 0001279  82.9274  35.5095 15.08815606 25165,6917.955,95.439,540.705,538.935,0.0
53871.0,STARLINK-4740,PAYLOAD,2023-02-23 03:50:12,15.0883867,0.0001455,53.2168,209.2231,96.4341,263.6817,-1.9354e-05,-5.96e-06,0.0,0 STARLINK-4740,1 53871U 22114BF  23054.15986953 -.00000596  00000-0 -19354-4 0  9992,2 53871  53.2168 209.2231 0001455  96.4341 263.6817 15.08838670 25749,6917.884,95.438,540.756,538.743,0.0
53871.0,STARLINK-4740,PAYLOAD,2023-02-23 19:44:03,15.08846877,0.0001442,53.2161,206.2476,98.8773,261.2382,-1.3113e-05,-4.97e-06,0.0,0 STARLINK-4740,1 53871U 22114BF  23054.82226341 -.00000497  00000-0 -13113-4 0  9991,2 53871  53.2161 206.2476 0001442  98.8773 261.2382 15.08846877 25841,6917.859,95.437,540.722,538.727,0.0
53871.0,STARLINK-4740,PAYLOAD,2023-02-23 21:19:26,15.08850372,0.000146,53.2171,205.9511,91.6843,268.4316,1.1974e-05,-9.7e-07,0.0,0 STARLINK-4740,1 53871U 22114BF  23054.88850048 -.00000097  00000-0  11974-4 0  9992,2 53871  53.2171 205.9511 0001460  91.6843 268.4316 15.08850372 25310,6917.849,95.437,540.724,538.704,0.0
53871.0,STARLINK-4740,PAYLOAD,2023-02-24 16:24:05,15.08834681,0.0001388,53.2168,202.3836,95.2457,264.8694,-3.6214e-06,-3.46e-06,0.0,0 STARLINK-4740,1 53871U 22114BF  23055.68339186 -.00000346  00000-0 -36214-5 0  9999,2 53871  53.2168 202.3836 0001388  95.2457 264.8694 15.08834681 25434,6917.897,95.438,540.722,538.801,0.0
53871.0,STARLINK-4740,PAYLOAD,2023-02-24 19:34:51,15.08839565,0.0001405,53.217,201.7875,96.8385,263.2767,-1.8874e-05,-5.88e-06,0.0,0 STARLINK-4740,1 53871U 22114BF  23055.81586935 -.00000588  00000-0 -18874-4 0  9999,2 53871  53.2170 201.7875 0001405  96.8385 263.2767 15.08839565 25991,6917.882,95.438,540.719,538.775,0.0
53871.0,STARLINK-4740,PAYLOAD,2023-02-24 21:10:14,15.08842497,0.0001413,53.2174,201.491,95.3458,264.7696,3.5566e-06,-2.31e-06,0.0,0 STARLINK-4740,1 53871U 22114BF  23055.88210663 -.00000231  00000-0  35566-5 0  9990,2 53871  53.2174 201.4910 0001413  95.3458 264.7696 15.08842497 25463,6917.873,95.437,540.715,538.76,0.0
53871.0,STARLINK-4740,PAYLOAD,2023-02-25 13:04:06,15.08831403,0.0001683,53.2176,198.5169,112.1976,247.9195,-6.5487e-05,-1.33e-05,0.0,0 STARLINK-4740,1 53871U 22114BF  23056.54451798 -.00001330  00000-0 -65487-4 0  9996,2 53871  53.2176 198.5169 0001683 112.1976 247.9195 15.08831403 25562,6917.907,95.438,540.936,538.607,0.0
53871.0,STARLINK-4740,PAYLOAD,2023-02-25 21:01:01,15.08842207,0.0001329,53.2178,197.031,88.2599,271.8545,-3.2538e-05,-8.06e-06,0.0,0 STARLINK-4740,1 53871U 22114BF  23056.87571155 -.00000806  00000-0 -32538-4 0  9990,2 53871  53.2178 197.0310 0001329  88.2599 271.8545 15.08842207 26152,6917.874,95.437,540.658,538.819,0.0
53871.0,STARLINK-4740,PAYLOAD,2023-02-26 09:44:06,15.08836907,0.0001113,53.2171,194.6502,92.3314,267.7806,8.1442e-05,1.008e-05,0.0,0 STARLINK-4740,1 53871U 22114BF  23057.40563109  .00001008  00000-0  81442-4 0  9991,2 53871  53.2171 194.6502 0001113  92.3314 267.7806 15.08836907 25695,6917.89,95.438,540.525,538.985,0.0
